{
  "id": "city-001",
  "name": "Paris",
  "slug": "paris",
  "country": "France",
  "hero_image": "https://placehold.co/1920x1080/e2e8f0/475569?text=Paris",
  "intro_vibe": "The city of light, love, and endless carbs.",
  "stats": {
    "currency": "EUR",
    "plug_type": "Type E",
    "best_time": "Spring (Apr-Jun)"
  },
  "logistics": {
    "safety": [
      "Watch for pickpockets on Metro Line 1",
      "Keep bags zipped in tourist areas"
    ],
    "scams": [
      "Avoid the 'gold ring' scam at Sacré-Cœur",
      "Petition scammers at major landmarks"
    ],
    "transit": [
      "Use CityMapper app for navigation",
      "Buy Navigo pass for unlimited travel",
      "Avoid taxis from airports - use RER trains"
    ]
  },
  "must_eat": [
    {
      "id": "place-001",
      "slug": "pierre-herme-croissant",
      "name_en": "Pierre Hermé Croissant Ispahan",
      "name_local": "Croissant Ispahan",
      "category": "food",
      "description": "The famous rose, raspberry, and lychee croissant that changed French pastry.",
      "image": "https://placehold.co/800x600/e2e8f0/475569?text=Croissant",
      "geo": { "lat": 48.8534, "lng": 2.3488 }
    },
    {
      "id": "place-002",
      "slug": "lami-jean",
      "name_en": "L'Ami Jean",
      "name_local": "L'Ami Jean",
      "category": "food",
      "description": "Basque-inspired bistro famous for rice pudding dessert.",
      "image": "https://placehold.co/800x600/e2e8f0/475569?text=Restaurant",
      "geo": { "lat": 48.8584, "lng": 2.3088 }
    },
    {
      "id": "place-003",
      "slug": "breizh-cafe",
      "name_en": "Breizh Café",
      "name_local": "Breizh Café",
      "category": "food",
      "description": "Authentic Breton crêpes in the heart of the Marais.",
      "image": "https://placehold.co/800x600/e2e8f0/475569?text=Crepes",
      "geo": { "lat": 48.8606, "lng": 2.3612 }
    },
    {
      "id": "place-004",
      "slug": "du-pain-et-des-idees",
      "name_en": "Du Pain et des Idées",
      "name_local": "Du Pain et des Idées",
      "category": "food",
      "description": "Legendary bakery known for pain des amis and escargot pastries.",
      "image": "https://placehold.co/800x600/e2e8f0/475569?text=Bakery",
      "geo": { "lat": 48.8718, "lng": 2.3627 }
    },
    {
      "id": "place-005",
      "slug": "chez-janou",
      "name_en": "Chez Janou",
      "name_local": "Chez Janou",
      "category": "food",
      "description": "Provençal bistro with 90+ types of pastis.",
      "image": "https://placehold.co/800x600/e2e8f0/475569?text=Bistro",
      "geo": { "lat": 48.8556, "lng": 2.3652 }
    },
    {
      "id": "place-006",
      "slug": "septime",
      "name_en": "Septime",
      "name_local": "Septime",
      "category": "food",
      "description": "Michelin-starred modern French cuisine, book months ahead.",
      "image": "https://placehold.co/800x600/e2e8f0/475569?text=Fine+Dining",
      "geo": { "lat": 48.8530, "lng": 2.3790 }
    },
    {
      "id": "place-007",
      "slug": "lami-louis",
      "name_en": "L'Ami Louis",
      "name_local": "L'Ami Louis",
      "category": "food",
      "description": "Historic bistro famous for roast chicken since 1924.",
      "image": "https://placehold.co/800x600/e2e8f0/475569?text=Classic+Bistro",
      "geo": { "lat": 48.8679, "lng": 2.3592 }
    }
  ],
  "must_see": [
    {
      "id": "place-101",
      "slug": "musee-rodin",
      "name_en": "Musée Rodin",
      "name_local": "Musée Rodin",
      "category": "sight",
      "description": "Sculpture museum with beautiful gardens, less crowded than the Louvre.",
      "image": "https://placehold.co/800x600/e2e8f0/475569?text=Museum",
      "geo": { "lat": 48.8553, "lng": 2.3159 }
    },
    {
      "id": "place-102",
      "slug": "sainte-chapelle",
      "name_en": "Sainte-Chapelle",
      "name_local": "Sainte-Chapelle",
      "category": "sight",
      "description": "13th-century Gothic chapel with stunning stained glass windows.",
      "image": "https://placehold.co/800x600/e2e8f0/475569?text=Chapel",
      "geo": { "lat": 48.8554, "lng": 2.3450 }
    },
    {
      "id": "place-103",
      "slug": "canal-saint-martin",
      "name_en": "Canal Saint-Martin",
      "name_local": "Canal Saint-Martin",
      "category": "sight",
      "description": "Trendy waterway perfect for picnics and people-watching.",
      "image": "https://placehold.co/800x600/e2e8f0/475569?text=Canal",
      "geo": { "lat": 48.8718, "lng": 2.3637 }
    },
    {
      "id": "place-104",
      "slug": "buttes-chaumont",
      "name_en": "Parc des Buttes-Chaumont",
      "name_local": "Parc des Buttes-Chaumont",
      "category": "sight",
      "description": "Dramatic hilltop park with waterfalls and city views.",
      "image": "https://placehold.co/800x600/e2e8f0/475569?text=Park",
      "geo": { "lat": 48.8799, "lng": 2.3828 }
    },
    {
      "id": "place-105",
      "slug": "passages-couverts",
      "name_en": "Les Passages Couverts",
      "name_local": "Les Passages Couverts",
      "category": "sight",
      "description": "19th-century covered shopping arcades with vintage charm.",
      "image": "https://placehold.co/800x600/e2e8f0/475569?text=Arcade",
      "geo": { "lat": 48.8710, "lng": 2.3414 }
    }
  ]
}
